start=new Date('2022-10-25T00:00:00.000Z').valueOf();
sats=[{"SITE":"AFETR","TLE_LINE2":"2 45100  53.0560  17.4791 0001802  45.9336 314.1801 15.06379826151328","EPOCH":"2022-10-24T15:33:42.692256","PERIOD":"95.593","FILE":"3631857","ELEMENT_SET_NO":"999","RA_OF_ASC_NODE":"17.4791","ARG_OF_PERICENTER":"45.9336","MEAN_MOTION_DDOT":"0.0000000000000","OBJECT_TYPE":"PAYLOAD","COUNTRY_CODE":"US","RCS_SIZE":"LARGE","OBJECT_NAME":"STARLINK-1193","NORAD_CAT_ID":"45100","MEAN_MOTION_DOT":"-0.00005542","BSTAR":"-0.00035362000000","CENTER_NAME":"EARTH","PERIAPSIS":"546.027","GP_ID":"216069161","MEAN_ELEMENT_THEORY":"SGP4","CLASSIFICATION_TYPE":"U","REF_FRAME":"TEME","SEMIMAJOR_AXIS":"6925.410","MEAN_ANOMALY":"314.1801","TIME_SYSTEM":"UTC","INCLINATION":"53.0560","TLE_LINE1":"1 45100U 20006BJ  22297.64841079 -.00005542  00000-0 -35362-3 0  9999","ECCENTRICITY":"0.00018020","DECAY_DATE":null,"LAUNCH_DATE":"2020-01-29","MEAN_MOTION":"15.06379826","EPHEMERIS_TYPE":"0","APOAPSIS":"548.523","REV_AT_EPOCH":"15132","OBJECT_ID":"2020-006BJ"},{"EPOCH":"2022-10-24T15:27:03.250368","FILE":"3631857","PERIOD":"95.594","RA_OF_ASC_NODE":"17.4708","ELEMENT_SET_NO":"999","SITE":"AFETR","TLE_LINE2":"2 45101  53.0572  17.4708 0001590  60.1579 299.9568 15.06376530151321","COUNTRY_CODE":"US","OBJECT_NAME":"STARLINK-1194","NORAD_CAT_ID":"45101","RCS_SIZE":"LARGE","MEAN_MOTION_DOT":"-0.00002519","ARG_OF_PERICENTER":"60.1579","MEAN_MOTION_DDOT":"0.0000000000000","OBJECT_TYPE":"PAYLOAD","GP_ID":"216068913","CLASSIFICATION_TYPE":"U","MEAN_ELEMENT_THEORY":"SGP4","MEAN_ANOMALY":"299.9568","TIME_SYSTEM":"UTC","REF_FRAME":"TEME","SEMIMAJOR_AXIS":"6925.420","CENTER_NAME":"EARTH","BSTAR":"-0.00015037000000","PERIAPSIS":"546.184","EPHEMERIS_TYPE":"0","MEAN_MOTION":"15.06376530","REV_AT_EPOCH":"15132","OBJECT_ID":"2020-006BK","APOAPSIS":"548.387","INCLINATION":"53.0572","ECCENTRICITY":"0.00015900","TLE_LINE1":"1 45101U 20006BK  22297.64378762 -.00002519  00000-0 -15037-3 0  9992","LAUNCH_DATE":"2020-01-29","DECAY_DATE":null},{"TLE_LINE2":"2 45102  53.0560  17.6807 0001271  60.6097 299.5018 15.06372138151312","SITE":"AFETR","ELEMENT_SET_NO":"999","RA_OF_ASC_NODE":"17.6807","PERIOD":"95.594","FILE":"3631857","EPOCH":"2022-10-24T14:24:42.901056","OBJECT_TYPE":"PAYLOAD","MEAN_MOTION_DDOT":"0.0000000000000","ARG_OF_PERICENTER":"60.6097","MEAN_MOTION_DOT":"-0.00004248","RCS_SIZE":"LARGE","NORAD_CAT_ID":"45102","OBJECT_NAME":"STARLINK-1195","COUNTRY_CODE":"US","PERIAPSIS":"546.419","BSTAR":"-0.00026667000000","CENTER_NAME":"EARTH","SEMIMAJOR_AXIS":"6925.434","REF_FRAME":"TEME","MEAN_ANOMALY":"299.5018","TIME_SYSTEM":"UTC","MEAN_ELEMENT_THEORY":"SGP4","CLASSIFICATION_TYPE":"U","GP_ID":"216068162","LAUNCH_DATE":"2020-01-29","DECAY_DATE":null,"TLE_LINE1":"1 45102U 20006BL  22297.60049654 -.00004248  00000-0 -26667-3 0  9996","ECCENTRICITY":"0.00012710","INCLINATION":"53.0560","APOAPSIS":"548.179","REV_AT_EPOCH":"15131","OBJECT_ID":"2020-006BL","MEAN_MOTION":"15.06372138","EPHEMERIS_TYPE":"0"},{"TIME_SYSTEM":"UTC","MEAN_ANOMALY":"278.5830","REF_FRAME":"TEME","SEMIMAJOR_AXIS":"6925.378","CLASSIFICATION_TYPE":"U","MEAN_ELEMENT_THEORY":"SGP4","GP_ID":"216068412","PERIAPSIS":"546.315","CENTER_NAME":"EARTH","BSTAR":"-0.00011512000000","REV_AT_EPOCH":"15132","OBJECT_ID":"2020-006BM","APOAPSIS":"548.171","EPHEMERIS_TYPE":"0","MEAN_MOTION":"15.06390547","DECAY_DATE":null,"LAUNCH_DATE":"2020-01-29","ECCENTRICITY":"0.00013400","TLE_LINE1":"1 45103U 20006BM  22297.63272411 -.00001995  00000-0 -11512-3 0  9998","INCLINATION":"53.0557","RA_OF_ASC_NODE":"17.5263","ELEMENT_SET_NO":"999","FILE":"3631857","PERIOD":"95.593","EPOCH":"2022-10-24T15:11:07.363104","TLE_LINE2":"2 45103  53.0557  17.5263 0001340  81.5311 278.5830 15.06390547151326","SITE":"AFETR","MEAN_MOTION_DOT":"-0.00001995","OBJECT_NAME":"STARLINK-1196","NORAD_CAT_ID":"45103","RCS_SIZE":"LARGE","COUNTRY_CODE":"US","OBJECT_TYPE":"PAYLOAD","MEAN_MOTION_DDOT":"0.0000000000000","ARG_OF_PERICENTER":"81.5311"},{"ARG_OF_PERICENTER":"113.7312","MEAN_MOTION_DDOT":"0.0000000000000","OBJECT_TYPE":"PAYLOAD","COUNTRY_CODE":"US","OBJECT_NAME":"STARLINK-1138","NORAD_CAT_ID":"45178","RCS_SIZE":"LARGE","MEAN_MOTION_DOT":"0.00001282","SITE":"AFETR","TLE_LINE2":"2 45178  53.0527 179.9895 0001419 113.7312 246.3826 15.06406158148998","EPOCH":"2022-10-24T02:06:54.020736","FILE":"3631438","PERIOD":"95.592","RA_OF_ASC_NODE":"179.9895","ELEMENT_SET_NO":"999","INCLINATION":"53.0527","ECCENTRICITY":"0.00014190","TLE_LINE1":"1 45178U 20012A   22297.08812524  .00001282  00000-0  10495-3 0  9997","DECAY_DATE":null,"LAUNCH_DATE":"2020-02-17","EPHEMERIS_TYPE":"0","MEAN_MOTION":"15.06406158","REV_AT_EPOCH":"14899","OBJECT_ID":"2020-012A","APOAPSIS":"548.177","CENTER_NAME":"EARTH","BSTAR":"0.00010495000000","PERIAPSIS":"546.212","GP_ID":"216036878","CLASSIFICATION_TYPE":"U","MEAN_ELEMENT_THEORY":"SGP4","TIME_SYSTEM":"UTC","MEAN_ANOMALY":"246.3826","REF_FRAME":"TEME","SEMIMAJOR_AXIS":"6925.330"},{"MEAN_MOTION":"15.06412286","EPHEMERIS_TYPE":"0","APOAPSIS":"548.127","REV_AT_EPOCH":"14903","OBJECT_ID":"2020-012B","INCLINATION":"53.0562","TLE_LINE1":"1 45179U 20012B   22296.95817846  .00000993  00000-0  85499-4 0  9990","ECCENTRICITY":"0.00013740","LAUNCH_DATE":"2020-02-17","DECAY_DATE":null,"GP_ID":"216035631","MEAN_ELEMENT_THEORY":"SGP4","CLASSIFICATION_TYPE":"U","REF_FRAME":"TEME","SEMIMAJOR_AXIS":"6925.311","MEAN_ANOMALY":"272.9613","TIME_SYSTEM":"UTC","BSTAR":"0.00008549900000","CENTER_NAME":"EARTH","PERIAPSIS":"546.224","COUNTRY_CODE":"US","RCS_SIZE":"LARGE","OBJECT_NAME":"STARLINK-1143","NORAD_CAT_ID":"45179","MEAN_MOTION_DOT":"0.00000993","ARG_OF_PERICENTER":"87.1534","MEAN_MOTION_DDOT":"0.0000000000000","OBJECT_TYPE":"PAYLOAD","EPOCH":"2022-10-23T22:59:46.618944","PERIOD":"95.591","FILE":"3631438","ELEMENT_SET_NO":"999","RA_OF_ASC_NODE":"180.5642","SITE":"AFETR","TLE_LINE2":"2 45179  53.0562 180.5642 0001374  87.1534 272.9613 15.06412286149030"},{"TLE_LINE2":"2 45180  53.0509 174.7108 0002615 107.7311 252.3967 15.13434613149126","SITE":"AFETR","PERIOD":"95.148","FILE":"3631438","EPOCH":"2022-10-24T00:30:32.448096","ELEMENT_SET_NO":"999","RA_OF_ASC_NODE":"174.7108","MEAN_MOTION_DDOT":"0.0000000000000","ARG_OF_PERICENTER":"107.7311","OBJECT_TYPE":"PAYLOAD","COUNTRY_CODE":"US","MEAN_MOTION_DOT":"0.00024309","RCS_SIZE":"LARGE","NORAD_CAT_ID":"45180","OBJECT_NAME":"STARLINK-1192","BSTAR":"0.00135670000000","CENTER_NAME":"EARTH","PERIAPSIS":"523.932","GP_ID":"216035380","SEMIMAJOR_AXIS":"6903.872","REF_FRAME":"TEME","MEAN_ANOMALY":"252.3967","TIME_SYSTEM":"UTC","MEAN_ELEMENT_THEORY":"SGP4","CLASSIFICATION_TYPE":"U","TLE_LINE1":"1 45180U 20012C   22297.02120889  .00024309  00000-0  13567-2 0  9997","ECCENTRICITY":"0.00026150","INCLINATION":"53.0509","DECAY_DATE":null,"LAUNCH_DATE":"2020-02-17","MEAN_MOTION":"15.13434613","EPHEMERIS_TYPE":"0","APOAPSIS":"527.542","REV_AT_EPOCH":"14912","OBJECT_ID":"2020-012C"},{"BSTAR":"-0.00049147000000","CENTER_NAME":"EARTH","PERIAPSIS":"546.306","GP_ID":"216067670","SEMIMAJOR_AXIS":"6925.418","REF_FRAME":"TEME","MEAN_ANOMALY":"262.6394","TIME_SYSTEM":"UTC","MEAN_ELEMENT_THEORY":"SGP4","CLASSIFICATION_TYPE":"U","TLE_LINE1":"1 45181U 20012D   22297.80690200 -.00007590  00000-0 -49147-3 0  9992","ECCENTRICITY":"0.00014110","INCLINATION":"53.0525","DECAY_DATE":null,"LAUNCH_DATE":"2020-02-17","MEAN_MOTION":"15.06377245","EPHEMERIS_TYPE":"0","APOAPSIS":"548.260","OBJECT_ID":"2020-012D","REV_AT_EPOCH":"14916","TLE_LINE2":"2 45181  53.0525 176.7649 0001411  97.4756 262.6394 15.06377245149169","SITE":"AFETR","PERIOD":"95.594","FILE":"3631857","EPOCH":"2022-10-24T19:21:56.332800","ELEMENT_SET_NO":"999","RA_OF_ASC_NODE":"176.7649","MEAN_MOTION_DDOT":"0.0000000000000","ARG_OF_PERICENTER":"97.4756","OBJECT_TYPE":"PAYLOAD","COUNTRY_CODE":"US","MEAN_MOTION_DOT":"-0.00007590","RCS_SIZE":"LARGE","OBJECT_NAME":"STARLINK-1200","NORAD_CAT_ID":"45181"},{"PERIAPSIS":"546.162","BSTAR":"-0.00001487700000","CENTER_NAME":"EARTH","MEAN_ELEMENT_THEORY":"SGP4","CLASSIFICATION_TYPE":"U","SEMIMAJOR_AXIS":"6925.340","REF_FRAME":"TEME","TIME_SYSTEM":"UTC","MEAN_ANOMALY":"242.6136","GP_ID":"216036378","DECAY_DATE":null,"LAUNCH_DATE":"2020-02-17","INCLINATION":"53.0534","TLE_LINE1":"1 45182U 20012E   22297.03100412 -.00000503  00000-0 -14877-4 0  9999","ECCENTRICITY":"0.00015060","APOAPSIS":"548.248","OBJECT_ID":"2020-012E","REV_AT_EPOCH":"14917","MEAN_MOTION":"15.06402664","EPHEMERIS_TYPE":"0","SITE":"AFETR","TLE_LINE2":"2 45182  53.0534 160.2281 0001506 117.5006 242.6136 15.06402664149174","ELEMENT_SET_NO":"999","RA_OF_ASC_NODE":"160.2281","EPOCH":"2022-10-24T00:44:38.755968","PERIOD":"95.592","FILE":"3631438","OBJECT_TYPE":"PAYLOAD","ARG_OF_PERICENTER":"117.5006","MEAN_MOTION_DDOT":"0.0000000000000","RCS_SIZE":"LARGE","OBJECT_NAME":"STARLINK-1201","NORAD_CAT_ID":"45182","MEAN_MOTION_DOT":"-0.00000503","COUNTRY_CODE":"US"},{"LAUNCH_DATE":"2020-02-17","DECAY_DATE":null,"ECCENTRICITY":"0.00020810","TLE_LINE1":"1 45183U 20012F   22297.64472266 -.00000226  00000-0  37235-5 0  9991","INCLINATION":"53.0538","OBJECT_ID":"2020-012F","REV_AT_EPOCH":"14914","APOAPSIS":"548.685","EPHEMERIS_TYPE":"0","MEAN_MOTION":"15.06390250","PERIAPSIS":"545.802","CENTER_NAME":"EARTH","BSTAR":"0.00000372350000","TIME_SYSTEM":"UTC","MEAN_ANOMALY":"272.8307","REF_FRAME":"TEME","SEMIMAJOR_AXIS":"6925.378","CLASSIFICATION_TYPE":"U","MEAN_ELEMENT_THEORY":"SGP4","GP_ID":"216069169","OBJECT_TYPE":"PAYLOAD","MEAN_MOTION_DDOT":"0.0000000000000","ARG_OF_PERICENTER":"87.2920","MEAN_MOTION_DOT":"-0.00000226","NORAD_CAT_ID":"45183","OBJECT_NAME":"STARLINK-1202","RCS_SIZE":"LARGE","COUNTRY_CODE":"US","TLE_LINE2":"2 45183  53.0538 177.4917 0002081  87.2920 272.8307 15.06390250149141","SITE":"AFETR","RA_OF_ASC_NODE":"177.4917","ELEMENT_SET_NO":"999","FILE":"3631857","PERIOD":"95.593","EPOCH":"2022-10-24T15:28:24.037824"}];
